ONEWEB-0706             
1 61611U 24188T   25336.51527671  .00000286  00000+0  78392-3 0  9998
2 61611  87.8805  75.4756 0001122  85.1079 275.0177 13.10369092 57626
ONEWEB-0707             
1 61612U 24188U   25336.29283362 -.00000091  00000+0 -29800-3 0  9996
2 61612  87.8823  75.4962 0001174  84.2936 275.8325 13.10366986 57537
ONEWEB-0708             
1 61613U 24188V   25336.31109049 -.00000663  00000+0 -19356-2 0  9998
2 61613  87.8809  75.5290 0001139 121.9177 238.2061 13.10375013 57513
